FENGYUN 1C DEB          
1 31367U 99025BRX 17346.29522316  .00000297  00000-0  10400-3 0  9992
2 31367  98.7354 105.2084 0113132  64.6597 325.9184 14.38962037563926
